ONEWEB-0056             
1 45159U 20008AE  24315.00595482  .00000773  00000+0  21784-2 0  9992
2 45159  87.8897 152.5875 0001567  90.4131 269.7175 13.10375053232432
ONEWEB-0057             
1 45160U 20008AF  24314.78352808  .00000605  00000+0  16978-2 0  9994
2 45160  87.8900 152.6373 0001584  85.7189 274.4120 13.10371212231819
ONEWEB-0058             
1 45161U 20008AG  24314.84674989  .00000605  00000+0  16972-2 0  9993
2 45161  87.8896 152.6511 0001599  80.8399 279.2909 13.10373860231890
ONEWEB-0059             
1 45162U 20008AH  24314.84327894  .00000416  00000+0  11546-2 0  9996
2 45162  87.8904 152.6385 0001508  78.9507 281.1790 13.10375986231799
ONEWEB-0062             
1 45163U 20008AJ  24315.02254876  .00000213  00000+0  57261-3 0  9997
2 45163  87.8893 152.5862 0001331  71.8360 288.2912 13.10371114232434
ONEWEB-0065             
1 45164U 20008AK  24314.84826058  .00000543  00000+0  15190-2 0  9994
2 45164  87.8906 152.6333 0001507  89.8536 270.2764 13.10375604231357
ONEWEB-0066             
1 45424U 20020A   24314.78973088 -.00000090  00000+0 -28978-3 0  9994
2 45424  87.8886 137.4942 0001915  84.9394 275.1953 13.11418208226088
ONEWEB-0067             
1 45425U 20020B   24314.75087813  .00000208  00000+0  55056-3 0  9990
2 45425  87.8868 137.4450 0001750  90.9737 269.1591 13.11415040226136
